{"type":"FeatureCollection","features":[{"type":"Feature","properties":{"name":"Yellow River"},"geometry":{"type":"Point","coordinates":[113.72,34.915]}},{"type":"Feature","properties":{"name":"Taihang Mountains"},"geometry":{"type":"Point","coordinates":[113.19,35.42]}},{"type":"Feature","properties":{"name":"Songshan"},"geometry":{"type":"Point","coordinates":[112.95,34.48]}},{"type":"Feature","properties":{"name":"Mangshan"},"geometry":{"type":"Point","coordinates":[113.57,34.955]}},{"type":"Feature","properties":{"name":"Zhengzhou"},"geometry":{"type":"Point","coordinates":[113.625,34.746]}},{"type":"Feature","properties":{"name":"Jiaozuo"},"geometry":{"type":"Point","coordinates":[113.242,35.215]}},{"type":"Feature","properties":{"name":"Xinxiang"},"geometry":{"type":"Point","coordinates":[113.926,35.303]}}]}
